,name,address,post_codes,lat,long
0,Coop Supermarkt Zürich Bahnhofbrücke,"Bahnhofbrücke 1, 8001 Zürich",8001,47.3764584,8.5423575
1,Coop Supermarkt Zürich ShopVille HB,"Halle Löwenstrasse, 8021 Zürich",8021,47.3750503,8.5363933
2,Coop Supermarkt Zürich Europaallee Passage,"Europaallee 5, 8001 Zürich",8001,47.3780286,8.534917499999999
3,Coop Supermarkt City Zürich St. Annahof Food,"Bahnhofstrasse 57, 8001 Zürich",8001,47.3728798,8.5380649
4,Coop Supermarkt Zürich Zollstrasse,"Zollstrasse 42, 8005 Zürich",8005,47.3805215,8.5348598
5,Coop Supermarkt Zürich Universitätstrasse,"Universitätstrasse 73, 8006 Zürich",8006,47.38252190000001,8.5478132
6,Coop Supermarkt Zürich Bärengasse,"Bärengasse 16, 8001 Zürich",8001,47.3700716,8.5371123
7,Coop Supermarkt Zürich Rigiplatz,"Universitätstrasse 101, 8006 Zürich",8006,47.3839665,8.5480536
8,Coop Supermarkt Zürich Stauffacher,"Badenerstrasse 15, 8004 Zürich",8004,47.3733855,8.530586099999999
9,Coop Supermarkt Zürich Bleicherweg,"Bleicherweg 19, 8002 Zürich",8002,47.3677755,8.535716299999999
10,Coop Supermarkt City Zürich Bellevue Food,"Theaterstrasse 18, 8024 Zürich",8024,47.3672717,8.5461092
11,Coop Supermarkt Zürich Hohlstrasse,"Hohlstrasse 35, 8004 Zürich",8004,47.3771023,8.5265009
12,Coop Supermarkt Zürich Stadelhofen,"Stadelhoferstrasse 10, 8001 Zürich",8001,47.366789,8.5480012
13,Coop Supermarkt Zürich Fluntern,"Zürichbergstrasse 75, 8044 Zürich",8044,47.3763974,8.559651299999999
14,Coop Supermarkt Zürich Josefstrasse,"Röntgenstrasse 48, 8005 Zürich",8005,47.3847527,8.527192099999999
15,Coop Supermarkt Zürich Enge Bahnhof,"Tessinerplatz 10, 8002 Zürich",8002,47.364369,8.530935399999999
16,Coop Supermarkt Zürich Brotgasse,"Seefeldstrasse 35, 8008 Zürich",8008,47.363175,8.549919
17,Coop Supermarkt Zürich Kreuzplatz,"Forchstrasse 4, 8008 Zürich",8008,47.3644433,8.554834399999999
18,Coop Supermarkt Zürich Römerhof,"Klosbachstrasse 104, 8032 Zürich",8032,47.3678338,8.5608684
19,Coop Supermarkt Zürich Lochergut,"Badenerstrasse 244, 8004 Zürich",8004,47.3759271,8.517500799999999
20,Coop Supermarkt Zürich Manessehof,"Uetlibergstrasse 20, 8045 Zürich",8045,47.3647466,8.5208808
21,Coop Supermarkt Zürich Wiedikon,"Birmensdorferstrasse 200, 8003 Zürich",8003,47.3707958,8.5160521
22,Coop Supermarkt Zürich Scheffelstrasse,"Scheffelstrasse 12, 8037 Zürich",8037,47.3938049,8.5295752
23,Coop Supermarkt Zürich Milchbuck,"Milchbuckstrasse 1-5, 8057 Zürich",8057,47.3954544,8.540429699999999
24,Coop Supermarkt Zürich Wipkingerbrücke,"Röschibachstrasse 22, 8037 Zürich",8037,47.393019,8.5249104
25,Coop Supermarkt Pfingstweidstrasse Prime 2,"Maschinenstrasse 10, 8005 Zürich",8005,47.3875317,8.5168082
26,Coop Supermarkt Zürich Seefeld,"Seefeldstrasse 123, 8008 Zürich",8008,47.3583766,8.5551051
27,Coop Supermarkt Zürich Albisriederplatz,"Badenerstrasse 333, 8003 Zürich",8003,47.37771410000001,8.5110951
28,Coop Supermarkt Zürich Puls 5,"Giessereistrasse 18, 8005 Zürich",8005,47.3905,8.517844
29,Coop Supermarkt Zürich Sihlcity Supermarkt,"Kalanderplatz 1, 8045 Zürich",8045,47.3581442,8.5225083
30,Coop Supermarkt Zürich Birmensdorferstrasse,"Birmensdorferstrasse 310, 8055 Zürich",8055,47.3699656,8.509094
31,Coop Supermarkt Zürich Tiefenbrunnen,"Seefeldstrasse 199, 8008 Zürich",8008,47.3532821,8.558858299999999
32,Coop Supermarkt Zürich Gutstrasse,"Gutstrasse 159, 8047 Zürich",8047,47.37346950000001,8.502201699999999
33,Coop Supermarkt Zürich Hard Turm Park,"Pfingstweidstrasse 106, 8005 Zürich",8005,47.391393,8.5076692
34,Coop Supermarkt Zürich Zentrum Friesenberg,"Friesenbergplatz 3, 8045 Zürich",8045,47.360785,8.5065898
35,Coop Supermarkt Zürich Wollishofen Seestr.,"Seestrasse 339, 8038 Zürich",8038,47.3472003,8.5331497
36,Coop Supermarkt Zürich Letzipark,"Baslerstrasse 50, 8048 Zürich",8048,47.3861901,8.4981288
37,Coop Supermarkt Zürich Dorflinde,"Schwamendingerstrasse 39/41, 8050 Zürich",8050,47.4076115,8.5499384
38,Coop Supermarkt City Zürich Oerlikon Food,"Wallisellenstrasse 1, 8050 Zürich",8050,47.4102934,8.5468254
39,Coop Supermarkt Zürich Triemli,"In der Ey 85, 8047 Zürich",8047,47.370577,8.4921401
40,Coop Supermarkt Zürich Hofwiesenstrasse,"Hofwiesenstrasse 370, 8050 Zürich",8050,47.4112712,8.5446858
41,Coop Supermarkt Zürich Schwamendingen,"Saatlenstrasse 12, 8051 Zürich",8051,47.4048386,8.5718702
42,Coop Supermarkt Zürich Andreasturm,"Andreasstrasse 5, 8050 Zürich",8050,47.4129687,8.5474157
43,Coop Supermarkt Zürich Eleven,"Sophie-Taeuber-Strasse 4, 8050 Zürich",8050,47.413017,8.5405912
44,Coop Supermarkt Zürich Precisa,"Wallisellenstrasse 333, 8050 Zürich",8050,47.4111982,8.562505699999999
45,Coop Supermarkt Zürich A-Park,"Albisriederstrasse 334, 8047 Zürich",8047,47.3761906,8.487078000000002
46,Coop Supermarkt Zürich Altstetten,"Badenerstrasse 650, 8048 Zürich",8048,47.3875519,8.4890246
47,Coop Supermarkt Zürich Wollishofen,"Alte Kalchbühlstrasse 15, 8038 Zürich",8038,47.3399334,8.5307593
48,Coop Supermarkt Zürich Westlink,"Vulkanplatz, 8048 Zürich",8048,47.3925381,8.4906554
49,Coop Supermarkt Zürich ETH Hönggerberg,"Wolfgang-Pauli-Strasse 14, 8049 Zürich",8049,47.4083915,8.507961
50,Coop Supermarkt Zürich Hönggermarkt,"Regensdorferstrasse 9, 8049 Zürich",8049,47.4026805,8.4983802
51,Coop Supermarkt Zürich Lindenplatz,"Lindenplatz 6, 8048 Zürich",8048,47.3876386,8.4853846
52,Coop Supermarkt Zürich Witikonerstrasse,"Witikonerstrasse 409, 8053 Zürich",8053,47.3602128,8.5946664
53,Coop Supermarkt Zürich Hirzenbachstrasse,"Hirzenbachstrasse 40, 8051 Zürich",8051,47.4034781,8.5893149
54,Coop Supermarkt Zürich Vulkanstrasse,"Vulkanstrasse 108/110, 8048 Zürich",8048,47.3936747,8.4839659
55,Coop Supermarkt Zollikon,"Alte Landstrasse 101, 8702 Zollikon",8702,47.3369131,8.576707899999999
56,Coop Supermarkt Zollikerberg Neumünster,"Forchstrasse 134, 8125 Zollikerberg",8125,47.3470258,8.596791699999999
57,Coop Supermarkt Zürich Schwellistrasse,"Schwellistrasse 69, 8052 Zürich",8052,47.4248979,8.537738899999999
58,Coop Supermarkt Zürich Wehntalerstrasse,"Wehntalerstrasse 549, 8046 Zürich",8046,47.4188943,8.5056017
59,Coop Supermarkt Opfikon Lindbergh-Allee,"Boulevard Lilienthal 20, 8152 Glattpark Opfikon",8152,47.4240742,8.5610263
60,Coop Supermarkt Zürich Suteracher,"Am Suteracher 14, 8048 Zürich",8048,47.389955,8.4720952
61,Coop Supermarkt Wallisellen Richti-Shopping,"Neue Winterthurerstrasse 82, 8304 Wallisellen",8304,47.4094811,8.5962266
62,Coop Supermarkt Wallisellen Bahnhofplatz,"Bahnhofplatz 2, 8304 Wallisellen",8304,47.4129201,8.5930178
63,Coop Supermarkt Zürich Bombach,"Frankentalerstrasse 20, 8049 Zürich",8049,47.4060321,8.4815884
64,Coop Supermarkt Zollikerberg,"Forchstrasse 180, 8125 Zollikerberg",8125,47.3461139,8.601835699999999
65,Coop Supermarkt Stallikon,"Sellenbüren 61, 8143 Stallikon",8143,47.3428304,8.4830749
66,Coop Supermarkt Opfikon,"Talackerstrasse 68, 8152 Glattbrugg",8152,47.4284888,8.563879499999999
67,Coop Supermarkt Zürich Leimbach,"Leimbachstrasse 200, 8041 Zürich",8041,47.3262341,8.514298499999999
68,Coop Supermarkt Kilchberg,"Bahnhofstrasse 11, 8802 Kilchberg",8802,47.3231335,8.5489812
69,Coop Supermarkt Uitikon Waldegg,"Zürcherstrasse 1, 8142 Uitikon",8142,47.3674507,8.4615999
70,Coop Supermarkt Dübendorf Center,"Adlerstrasse 1, 8600 Dübendorf",8600,47.3976122,8.616562199999999
71,Coop Supermarkt Glattbrugg Bahnhof,"Europastrasse 4, 8152 Glattbrugg",8152,47.4306294,8.5600503
72,Coop Supermarkt Zürich Rütihof,"Rütihofstrasse 15, 8049 Zürich",8049,47.41373489999999,8.479611799999999
73,Coop Supermarkt Zürich Mühlackerstrasse,"Mühlackerstrasse 199, 8046 Zürich",8046,47.4255113,8.4969846
74,Coop Supermarkt Glattbrugg,"Schaffhauserstrasse 124, 8152 Glattbrugg",8152,47.4343434,8.567015
75,Coop Supermarkt Dietlikon Center,"Industriestrasse 28, 8305 Dietlikon",8305,47.41345219999999,8.6182091
76,Coop Supermarkt Küsnacht Itschnach,"Ecke Sonnenrein/Zumikerstrasse, 8700 Küsnacht",8700,47.3289375,8.5903137
77,Coop Supermarkt Adliswil,"Poststrasse 3, 8134 Adliswil",8134,47.31303579999999,8.5255531
78,Coop Supermarkt Küsnacht Dorf,"Dorfstrasse 16, 8700 Küsnacht",8700,47.3179866,8.581712099999999
79,Coop Supermarkt Zumikon Morgental,"Morgental 39, 8126 Zumikon",8126,47.336789,8.6182071
80,Coop Supermarkt Oberengstringen,"Zürcherstrasse 149, 8102 Oberengstringen",8102,47.4105673,8.4578553
81,Coop Supermarkt Schlieren Lilie,"Zürcherstrasse 6, 8952 Schlieren",8952,47.3973601,8.4487969
82,Coop Supermarkt Fällanden,"Wigartenstrasse 8/10, 8117 Fällanden",8117,47.3709779,8.6416956
83,Coop Supermarkt Dietlikon Bahnhofstrasse,"Bahnhofstrasse 41, 8305 Dietlikon",8305,47.42189399999999,8.618678899999999
84,Coop Supermarkt Rüschlikon,"Weingartenstrasse 11, 8803 Rüschlikon",8803,47.30768200000001,8.5542227
85,Coop Supermarkt Schlieren Rietpark,"Goldschlägiplatz 5, 8952 Schlieren",8952,47.3998205,8.4414784
86,Coop Supermarkt Bonstetten,"Im Heumoos 25, 8906 Bonstetten",8906,47.3240853,8.4691391
87,Coop Supermarkt Regensdorf Zentrum,"Zentrum 1, 8105 Regensdorf",8105,47.4313251,8.4691306
88,Coop Supermarkt Birmensdorf,"Zürcherstrasse 13A, 8903 Birmensdorf",8903,47.3542257,8.436352399999999
89,Coop Supermarkt Zürich Airport Shopping,"Airport Center, 8060 Zürich",8060,47.3768866,8.541694
90,Coop Supermarkt Regensdorf Rägi Märt,"Feldstrasse 2, 8105 Regensdorf",8105,47.4374853,8.474880299999999
91,Coop Supermarkt Erlenbach,"Seestrasse 17, 8703 Erlenbach",8703,47.3467035,8.5643155
92,Coop Supermarkt Kloten Center,"Schaffhauserstrasse 146, 8302 Kloten",8302,47.45316160000001,8.5810155
93,Coop Supermarkt Thalwil,"Florastrasse 1, 8800 Thalwil",8800,47.2969267,8.5618553
94,Coop Supermarkt Urdorf,"Birmensdorferstrasse 79, 8902 Urdorf",8902,47.38488340000001,8.4222555
95,Coop Supermarkt Volketswil Volkiland,"Industriestrasse 1, 8604 Volketswil",8604,47.38251289999999,8.6675693
96,Coop Supermarkt Dietikon Brunau,"Birmendorferstrasse 9, 8953 Dietikon",8953,47.3981458,8.4178599
97,Coop Supermarkt Rümlang Riedmatt,"Oberglatterstrasse 35, 8153 Rümlang",8153,47.4631645,8.5257705
98,Coop Supermarkt Langnau am Albis,"Höflistrasse 7, 8135 Langnau am Albis",8135,47.2892437,8.5397724
99,Coop Supermarkt Bassersdorf,"Breitistrasse 32, 8303 Bassersdorf",8303,47.4425176,8.6316285
100,Coop Supermarkt Dällikon,"Industriestrasse 14, 8108 Dällikon",8108,47.4440119,8.4416617
101,Coop Supermarkt Dietikon Florastrasse,"Florastrasse 22+24, 8953 Dietikon",8953,47.4000625,8.4003125
102,Coop Supermarkt Oberrieden,"Alte Landstrasse 26, 8942 Oberrieden",8942,47.2782358,8.5753919
103,Coop Supermarkt Geroldswil,"Huebwiesenstrasse 25, 8954 Geroldswil",8954,47.4214261,8.4097309
104,Coop Supermarkt Herrliberg,"Forchstrasse 45, 8704 Herrliberg",8704,47.3170466,8.665456599999999
105,Coop Supermarkt Dietikon Steinmürlistrasse,"Steinmürlistrasse 38, 8953 Dietikon",8953,47.4057097,8.392097399999999
106,Coop Supermarkt Buchs ZH,"Zürcherstrasse 10, 8107 Buchs",8107,47.45774919999999,8.4381817
107,Coop Supermarkt Feldmeilen,"General-Willestrasse 65, 8706 Feldmeilen",8706,47.2795598,8.6153894
108,Coop Supermarkt Dietikon Silbern,"Silbernstrasse 9, 8953 Dietikon",8953,47.4185483,8.3920055
109,Coop Supermarkt Effretikon Effimärt,"Haldenstrasse 10, 8307 Effretikon",8307,47.42846309999999,8.68468
110,Coop Supermarkt Uster Niederuster,"Sonnenbergstrasse 8, 8610 Uster",8610,47.34587399999999,8.7020372
111,Coop Supermarkt Effretikon Watt,"Illnauerstrasse 16, 8307 Effretikon",8307,47.426901,8.6920444
112,Coop Supermarkt Niederglatt,"Sägereistrasse 2, 8172 Niederglatt",8172,47.4912333,8.503893999999999
113,Coop Supermarkt Uster Winterthurerstrasse,"Winterthurerstrasse 22, 8610 Uster",8610,47.35503320000001,8.7128684
114,Coop Supermarkt Berikon,"Bahnhofstrasse 3, 8965 Berikon",8965,47.3617211,8.3677117
115,Coop Supermarkt Dielsdorf,"Niederhaslistrasse 5, 8157 Dielsdorf",8157,47.484392,8.4655937
116,Coop Supermarkt Uster Bahnhof,"Uster Bahnhof, 8610 Uster",8610,47.35036,8.718689
117,Coop Supermarkt Affoltern am Albis,"Büelstrasse 15, 8910 Affoltern am Albis",8910,47.2738709,8.445676299999999
118,Coop Supermarkt Horgen Leue-Huus,"Zugerstrasse 35, 8810 Horgen",8810,47.2592149,8.5987718
119,Coop Supermarkt Egg,"Gewerbestrasse 13, 8132 Egg ZH",8132,47.3040831,8.691676800000002
120,Coop Supermarkt Bachenbülach,"Grabenstrasse 6, 8184 Bachenbülach",8184,47.5064024,8.5406855
121,Coop Supermarkt Bachenbülach,"Grabenstrasse 6, 8184 Bachenbülach",8184,47.5064024,8.5406855
122,Coop Supermarkt Meilen,"Dorfstrasse 140, 8706 Meilen",8706,47.2686266,8.6465684
123,Coop Supermarkt Uster Oberuster,"Aathalstrasse 40, 8610 Uster",8610,47.3451066,8.730619599999999
124,Coop Supermarkt Bremgarten,"Sonnengutstrasse 2, 5620 Bremgarten",5620,47.3515251,8.3479545
125,Coop Supermarkt Obfelden,"Ottenbacherstrasse 23, 8912 Obfelden",8912,47.266924,8.4242246
126,Coop Supermarkt Würenlos,"Poststrasse 1, 5436 Würenlos",5436,47.4433022,8.362069199999999
127,Coop Supermarkt Embrach,"Dorfstrasse 138, 8424 Embrach",8424,47.5109947,8.594256699999999
128,Coop Supermarkt Horgen Waldegg,"Einsiedlerstrasse 301, 8810 Horgen",8810,47.2454475,8.6079657
129,Coop Supermarkt Würenlos Autobahnraststätte,"Shopping-Raststätte A1, 5436 Würenlos",5436,47.4237384,8.3838173
130,Coop Supermarkt Fehraltorf,"Grundstrasse 1, 8320 Fehraltorf",8320,47.3867775,8.7549285
131,Coop Supermarkt Uetikon,"Bergstrasse 93, 8707 Uetikon",8707,47.2626915,8.6771383
132,Coop Supermarkt Bülach im Guss,"Schaffhauserstrasse 110, 8180 Bülach",8180,47.52707299999999,8.5360678
133,Coop Supermarkt Au Wädenswil,"Alte Landstrasse 26, 8804 Au",8804,47.2421863,8.6555767
134,Coop Supermarkt Männedorf,"Dammstrasse 18, 8708 Männedorf",8708,47.255438,8.6897305
135,Coop Supermarkt Neuenhof,"Albertstrasse 2, 5432 Neuenhof",5432,47.4491504,8.3283972
136,Coop Supermarkt Gossau ZH,"Büelgass, 8625 Gossau",8625,47.3055606,8.7569243
137,Coop Supermarkt Pfäffikon ZH,"Turmstrasse 8/10, 8330 Pfäffikon",8330,47.3690994,8.781915999999999
138,Coop Supermarkt Winterthur Lokwerk,"Zürcherstrasse 51, 8406 Winterthur",8406,47.494827,8.7127721
139,Coop Supermarkt Wettingen Tägipark,"Jurastrasse 42-46, 5430 Wettingen",5430,47.4582992,8.3293304
140,Coop Supermarkt Niederrohrdorf,"Zentrum 2, 5443 Niederrohrdorf",5443,47.4237754,8.3051684
141,Coop Supermarkt Winterthur Wülflingen,"Wülflingerstrasse 271, 8408 Winterthur",8408,47.5101231,8.6915216
142,Coop Supermarkt Wädenswil di alt Fabrik,"Florhofstrasse 9, 8820 Wädenswil",8820,47.2306389,8.6699631
143,Coop Supermarkt Wädenswil,"Zugerstrasse 6, 8820 Wädenswil",8820,47.23030139999999,8.6724502
144,Coop Supermarkt Muri AG,"Seetalstrasse 1, 5630 Muri",5630,47.2726526,8.3409972
145,Coop Supermarkt Neftenbach,"Winterthurstrasse 17, 8413 Neftenbach",8413,47.5264811,8.6690004
146,Coop Supermarkt City Winterthur Food,"Bahnhofplatz 3, 8400 Winterthur",8400,47.4993784,8.7235009
147,Coop Supermarkt Winterthur Stadttor,"Bahnhofplatz 5, 8400 Winterthur",8400,47.4994672,8.7232865
148,Coop Supermarkt Winterthur Stadtgarten,"Bankstrasse 8/12, 8400 Winterthur",8400,47.5005535,8.7259011
149,Coop Supermarkt Kollbrunn,"Dorfstrasse 8A, 8483 Kollbrunn",8483,47.4565058,8.7736091
150,Coop Supermarkt Winterthur Feldstrasse,"Feldstrasse 11, 8400 Winterthur",8400,47.5085541,8.717882399999999
151,Coop Supermarkt Ehrendingen,"Dorfstrasse 17, 5420 Ehrendingen",5420,47.4942386,8.3408204
152,Coop Supermarkt Baar Oberdorf,"Oberdorfstrasse 6A, 6340 Baar",6340,47.1956305,8.529893600000001
153,Coop Supermarkt Wetzikon,"Kirchgasse 4, 8620 Wetzikon",8620,47.3261749,8.7976149
154,Coop Supermarkt Glattfelden,"Emmerstrasse 12, 8192 Glattfelden",8192,47.55682849999999,8.5027777
155,Coop Supermarkt Baar Gotthard,"Poststrasse 3, 6340 Baar",6340,47.1951121,8.5238544
156,Coop Supermarkt Winterthur Seen,"Tösstalstrasse 236, 8405 Winterthur",8405,47.4845901,8.7587302
157,Coop Supermarkt Stäfa,"Kronenstrasse 4+6, 8712 Stäfa",8712,47.2415352,8.7244654
158,Coop Supermarkt Steinhausen,"Bahnhofstrasse 7, 6312 Steinhausen",6312,47.196404,8.4826204
159,Coop Supermarkt Baden-Dättwil,"Mellingerstrasse 212, 5405 Baden-Dättwil",5405,47.4507293,8.2905123
